[
  {
    "OBJECT_NAME": "STARLINK-34301",
    "OBJECT_ID": "25126F",
    "EPOCH": "2025-11-11T06:11:21.742656",
    "MEAN_MOTION": 14.98333004,
    "ECCENTRICITY": 0.0003168,
    "INCLINATION": 70.0015,
    "RA_OF_ASC_NODE": 332.998,
    "ARG_OF_PERICENTER": 271.1466,
    "MEAN_ANOMALY": 88.933,
    "EPHEMERIS_TYPE": 0,
    "CLASSIFICATION_TYPE": "U",
    "NORAD_CAT_ID": 64349,
    "ELEMENT_SET_NO": 999,
    "REV_AT_EPOCH": 2294,
    "BSTAR": 0.00024713,
    "MEAN_MOTION_DOT": 2.857e-05,
    "MEAN_MOTION_DDOT": 0.0,
    "TLE_LINE1": "1 64349U 25126F   25315.25789054  .00002857  00000+0  24713-3 0  9999",
    "TLE_LINE2": "2 64349  70.0015 332.9980 0003168 271.1466  88.9330 14.98333004 22943",
    "COMMENT": "Grouped by shell and plane from TLE"
  },
  {
    "OBJECT_NAME": "STARLINK-34425",
    "OBJECT_ID": "25126G",
    "EPOCH": "2025-11-11T06:41:24.867456",
    "MEAN_MOTION": 14.98339892,
    "ECCENTRICITY": 0.0003138,
    "INCLINATION": 70.0018,
    "RA_OF_ASC_NODE": 333.0662,
    "ARG_OF_PERICENTER": 271.8814,
    "MEAN_ANOMALY": 88.1986,
    "EPHEMERIS_TYPE": 0,
    "CLASSIFICATION_TYPE": "U",
    "NORAD_CAT_ID": 64350,
    "ELEMENT_SET_NO": 999,
    "REV_AT_EPOCH": 2294,
    "BSTAR": 0.00041572,
    "MEAN_MOTION_DOT": 4.872e-05,
    "MEAN_MOTION_DDOT": 0.0,
    "TLE_LINE1": "1 64350U 25126G   25315.27876004  .00004872  00000+0  41572-3 0  9996",
    "TLE_LINE2": "2 64350  70.0018 333.0662 0003138 271.8814  88.1986 14.98339892 22948",
    "COMMENT": "Grouped by shell and plane from TLE"
  },
  {
    "OBJECT_NAME": "STARLINK-34389",
    "OBJECT_ID": "25126H",
    "EPOCH": "2025-11-11T06:23:36.064896",
    "MEAN_MOTION": 14.98326367,
    "ECCENTRICITY": 0.0003422,
    "INCLINATION": 70.0013,
    "RA_OF_ASC_NODE": 333.0226,
    "ARG_OF_PERICENTER": 270.2202,
    "MEAN_ANOMALY": 89.8565,
    "EPHEMERIS_TYPE": 0,
    "CLASSIFICATION_TYPE": "U",
    "NORAD_CAT_ID": 64351,
    "ELEMENT_SET_NO": 999,
    "REV_AT_EPOCH": 2294,
    "BSTAR": 0.0,
    "MEAN_MOTION_DOT": -2.592e-05,
    "MEAN_MOTION_DDOT": 0.0,
    "TLE_LINE1": "1 64351U 25126H   25315.26638964 -.00002592  00000+0 -20949-3 0  9991",
    "TLE_LINE2": "2 64351  70.0013 333.0226 0003422 270.2202  89.8565 14.98326367 22944",
    "COMMENT": "Grouped by shell and plane from TLE"
  },
  {
    "OBJECT_NAME": "STARLINK-34385",
    "OBJECT_ID": "25126J",
    "EPOCH": "2025-11-11T06:59:26.799360",
    "MEAN_MOTION": 14.98337719,
    "ECCENTRICITY": 0.0003211,
    "INCLINATION": 70.002,
    "RA_OF_ASC_NODE": 333.1136,
    "ARG_OF_PERICENTER": 275.3565,
    "MEAN_ANOMALY": 84.7228,
    "EPHEMERIS_TYPE": 0,
    "CLASSIFICATION_TYPE": "U",
    "NORAD_CAT_ID": 64352,
    "ELEMENT_SET_NO": 999,
    "REV_AT_EPOCH": 2294,
    "BSTAR": 0.00032829,
    "MEAN_MOTION_DOT": 3.827e-05,
    "MEAN_MOTION_DDOT": 0.0,
    "TLE_LINE1": "1 64352U 25126J   25315.29128240  .00003827  00000+0  32829-3 0  9996",
    "TLE_LINE2": "2 64352  70.0020 333.1136 0003211 275.3565  84.7228 14.98337719 22941",
    "COMMENT": "Grouped by shell and plane from TLE"
  },
  {
    "OBJECT_NAME": "STARLINK-34431",
    "OBJECT_ID": "25126K",
    "EPOCH": "2025-11-11T07:41:43.381536",
    "MEAN_MOTION": 14.98340389,
    "ECCENTRICITY": 0.0003214,
    "INCLINATION": 70.0011,
    "RA_OF_ASC_NODE": 332.8193,
    "ARG_OF_PERICENTER": 270.3448,
    "MEAN_ANOMALY": 89.7342,
    "EPHEMERIS_TYPE": 0,
    "CLASSIFICATION_TYPE": "U",
    "NORAD_CAT_ID": 64353,
    "ELEMENT_SET_NO": 999,
    "REV_AT_EPOCH": 2295,
    "BSTAR": 0.00044003,
    "MEAN_MOTION_DOT": 5.163e-05,
    "MEAN_MOTION_DDOT": 0.0,
    "TLE_LINE1": "1 64353U 25126K   25315.32064099  .00005163  00000+0  44003-3 0  9994",
    "TLE_LINE2": "2 64353  70.0011 332.8193 0003214 270.3448  89.7342 14.98340389 22959",
    "COMMENT": "Grouped by shell and plane from TLE"
  },
  {
    "OBJECT_NAME": "STARLINK-34473",
    "OBJECT_ID": "25126L",
    "EPOCH": "2025-11-11T06:23:23.032320",
    "MEAN_MOTION": 14.98335764,
    "ECCENTRICITY": 0.0003728,
    "INCLINATION": 70.0008,
    "RA_OF_ASC_NODE": 333.0282,
    "ARG_OF_PERICENTER": 268.1768,
    "MEAN_ANOMALY": 91.8965,
    "EPHEMERIS_TYPE": 0,
    "CLASSIFICATION_TYPE": "U",
    "NORAD_CAT_ID": 64354,
    "ELEMENT_SET_NO": 999,
    "REV_AT_EPOCH": 2294,
    "BSTAR": 0.00033046999999999997,
    "MEAN_MOTION_DOT": 3.853e-05,
    "MEAN_MOTION_DDOT": 0.0,
    "TLE_LINE1": "1 64354U 25126L   25315.26623880  .00003853  00000+0  33047-3 0  9997",
    "TLE_LINE2": "2 64354  70.0008 333.0282 0003728 268.1768  91.8965 14.98335764 22943",
    "COMMENT": "Grouped by shell and plane from TLE"
  },
  {
    "OBJECT_NAME": "STARLINK-34270",
    "OBJECT_ID": "25126M",
    "EPOCH": "2025-11-11T06:29:21.588000",
    "MEAN_MOTION": 14.98339106,
    "ECCENTRICITY": 0.000352,
    "INCLINATION": 70.0014,
    "RA_OF_ASC_NODE": 333.0398,
    "ARG_OF_PERICENTER": 273.0405,
    "MEAN_ANOMALY": 87.0352,
    "EPHEMERIS_TYPE": 0,
    "CLASSIFICATION_TYPE": "U",
    "NORAD_CAT_ID": 64355,
    "ELEMENT_SET_NO": 999,
    "REV_AT_EPOCH": 2415,
    "BSTAR": 0.0,
    "MEAN_MOTION_DOT": -0.00012827,
    "MEAN_MOTION_DDOT": 0.0,
    "TLE_LINE1": "1 64355U 25126M   25315.27038875 -.00012827  00000+0 -10689-2 0  9992",
    "TLE_LINE2": "2 64355  70.0014 333.0398 0003520 273.0405  87.0352 14.98339106 24158",
    "COMMENT": "Grouped by shell and plane from TLE"
  },
  {
    "OBJECT_NAME": "STARLINK-34397",
    "OBJECT_ID": "25126N",
    "EPOCH": "2025-11-11T07:05:26.689920",
    "MEAN_MOTION": 14.98362854,
    "ECCENTRICITY": 0.0002928,
    "INCLINATION": 70.0024,
    "RA_OF_ASC_NODE": 333.1266,
    "ARG_OF_PERICENTER": 268.5199,
    "MEAN_ANOMALY": 91.5624,
    "EPHEMERIS_TYPE": 0,
    "CLASSIFICATION_TYPE": "U",
    "NORAD_CAT_ID": 64356,
    "ELEMENT_SET_NO": 999,
    "REV_AT_EPOCH": 2294,
    "BSTAR": 0.0013965,
    "MEAN_MOTION_DOT": 0.00016624,
    "MEAN_MOTION_DDOT": 0.0,
    "TLE_LINE1": "1 64356U 25126N   25315.29544780  .00016624  00000+0  13965-2 0  9999",
    "TLE_LINE2": "2 64356  70.0024 333.1266 0002928 268.5199  91.5624 14.98362854 22948",
    "COMMENT": "Grouped by shell and plane from TLE"
  },
  {
    "OBJECT_NAME": "STARLINK-34454",
    "OBJECT_ID": "25126P",
    "EPOCH": "2025-11-11T07:11:42.994752",
    "MEAN_MOTION": 14.98324674,
    "ECCENTRICITY": 0.0003068,
    "INCLINATION": 70.002,
    "RA_OF_ASC_NODE": 333.1385,
    "ARG_OF_PERICENTER": 270.8575,
    "MEAN_ANOMALY": 89.2233,
    "EPHEMERIS_TYPE": 0,
    "CLASSIFICATION_TYPE": "U",
    "NORAD_CAT_ID": 64357,
    "ELEMENT_SET_NO": 999,
    "REV_AT_EPOCH": 2294,
    "BSTAR": 0.00017577,
    "MEAN_MOTION_DOT": 2.005e-05,
    "MEAN_MOTION_DDOT": 0.0,
    "TLE_LINE1": "1 64357U 25126P   25315.29980318  .00002005  00000+0  17577-3 0  9993",
    "TLE_LINE2": "2 64357  70.0020 333.1385 0003068 270.8575  89.2233 14.98324674 22945",
    "COMMENT": "Grouped by shell and plane from TLE"
  },
  {
    "OBJECT_NAME": "STARLINK-34436",
    "OBJECT_ID": "25126Q",
    "EPOCH": "2025-11-11T07:29:41.960544",
    "MEAN_MOTION": 14.98341531,
    "ECCENTRICITY": 0.0003278,
    "INCLINATION": 70.0013,
    "RA_OF_ASC_NODE": 332.7818,
    "ARG_OF_PERICENTER": 269.1296,
    "MEAN_ANOMALY": 90.9488,
    "EPHEMERIS_TYPE": 0,
    "CLASSIFICATION_TYPE": "U",
    "NORAD_CAT_ID": 64358,
    "ELEMENT_SET_NO": 999,
    "REV_AT_EPOCH": 2295,
    "BSTAR": 0.00050305,
    "MEAN_MOTION_DOT": 5.916e-05,
    "MEAN_MOTION_DDOT": 0.0,
    "TLE_LINE1": "1 64358U 25126Q   25315.31229121  .00005916  00000+0  50305-3 0  9995",
    "TLE_LINE2": "2 64358  70.0013 332.7818 0003278 269.1296  90.9488 14.98341531 22951",
    "COMMENT": "Grouped by shell and plane from TLE"
  },
  {
    "OBJECT_NAME": "STARLINK-34291",
    "OBJECT_ID": "25126R",
    "EPOCH": "2025-11-11T06:17:36.713472",
    "MEAN_MOTION": 14.98341998,
    "ECCENTRICITY": 0.0003019,
    "INCLINATION": 70.002,
    "RA_OF_ASC_NODE": 333.0062,
    "ARG_OF_PERICENTER": 271.8051,
    "MEAN_ANOMALY": 88.2762,
    "EPHEMERIS_TYPE": 0,
    "CLASSIFICATION_TYPE": "U",
    "NORAD_CAT_ID": 64359,
    "ELEMENT_SET_NO": 999,
    "REV_AT_EPOCH": 2294,
    "BSTAR": 0.0012736,
    "MEAN_MOTION_DOT": 0.0001514,
    "MEAN_MOTION_DDOT": 0.0,
    "TLE_LINE1": "1 64359U 25126R   25315.26223048  .00015140  00000+0  12736-2 0  9997",
    "TLE_LINE2": "2 64359  70.0020 333.0062 0003019 271.8051  88.2762 14.98341998 22948",
    "COMMENT": "Grouped by shell and plane from TLE"
  },
  {
    "OBJECT_NAME": "STARLINK-34458",
    "OBJECT_ID": "25126S",
    "EPOCH": "2025-11-11T06:29:37.473504",
    "MEAN_MOTION": 14.98344978,
    "ECCENTRICITY": 0.000408,
    "INCLINATION": 70.0017,
    "RA_OF_ASC_NODE": 333.0389,
    "ARG_OF_PERICENTER": 273.0507,
    "MEAN_ANOMALY": 87.0186,
    "EPHEMERIS_TYPE": 0,
    "CLASSIFICATION_TYPE": "U",
    "NORAD_CAT_ID": 64360,
    "ELEMENT_SET_NO": 999,
    "REV_AT_EPOCH": 2294,
    "BSTAR": 0.0,
    "MEAN_MOTION_DOT": -1.81e-05,
    "MEAN_MOTION_DDOT": 0.0,
    "TLE_LINE1": "1 64360U 25126S   25315.27057261 -.00001810  00000+0 -14388-3 0  9999",
    "TLE_LINE2": "2 64360  70.0017 333.0389 0004080 273.0507  87.0186 14.98344978 22945",
    "COMMENT": "Grouped by shell and plane from TLE"
  },
  {
    "OBJECT_NAME": "STARLINK-34243",
    "OBJECT_ID": "25126T",
    "EPOCH": "2025-11-11T06:35:24.197568",
    "MEAN_MOTION": 14.98342473,
    "ECCENTRICITY": 0.0003188,
    "INCLINATION": 70.0015,
    "RA_OF_ASC_NODE": 333.0545,
    "ARG_OF_PERICENTER": 271.1676,
    "MEAN_ANOMALY": 88.9118,
    "EPHEMERIS_TYPE": 0,
    "CLASSIFICATION_TYPE": "U",
    "NORAD_CAT_ID": 64361,
    "ELEMENT_SET_NO": 999,
    "REV_AT_EPOCH": 2294,
    "BSTAR": 0.0005584,
    "MEAN_MOTION_DOT": 6.578e-05,
    "MEAN_MOTION_DDOT": 0.0,
    "TLE_LINE1": "1 64361U 25126T   25315.27458562  .00006578  00000+0  55840-3 0  9991",
    "TLE_LINE2": "2 64361  70.0015 333.0545 0003188 271.1676  88.9118 14.98342473 22945",
    "COMMENT": "Grouped by shell and plane from TLE"
  }
]